[{"OBJECT_NAME":"SAUDICOMSAT 3","OBJECT_ID":"2007-012J","EPOCH":"2026-03-09T21:56:33.601056","MEAN_MOTION":14.70526386,"ECCENTRICITY":0.0039477,"INCLINATION":98.305,"RA_OF_ASC_NODE":42.4048,"ARG_OF_PERICENTER":7.9063,"MEAN_ANOMALY":352.2756,"EPHEMERIS_TYPE":0,"CLASSIFICATION_TYPE":"U","NORAD_CAT_ID":31125,"ELEMENT_SET_NO":999,"REV_AT_EPOCH":1023,"BSTAR":0.00027068217,"MEAN_MOTION_DOT":1.608e-5,"MEAN_MOTION_DDOT":0},{"OBJECT_NAME":"FENGYUN 1C DEB","OBJECT_ID":"1999-025EKP","EPOCH":"2026-03-01T02:01:53.163840","MEAN_MOTION":14.7642252,"ECCENTRICITY":0.00219391,"INCLINATION":99.0484,"RA_OF_ASC_NODE":283.3547,"ARG_OF_PERICENTER":117.4166,"MEAN_ANOMALY":37.3398,"EPHEMERIS_TYPE":0,"CLASSIFICATION_TYPE":"U","NORAD_CAT_ID":37595,"ELEMENT_SET_NO":999,"REV_AT_EPOCH":63759,"BSTAR":0.0046491705,"MEAN_MOTION_DOT":0.00032541,"MEAN_MOTION_DDOT":0}]
